GPS BIIA-10 (PRN 32)    
1 20959U 90103A   09100.78149676 -.00000050  00000-0  10000-3 0  2067
2 20959  55.2707 285.6990 0135785 292.2313  66.3165  2.00571516134555
GPS BIIA-11 (PRN 24)    
1 21552U 91047A   09100.48613182 -.00000018  00000-0  10000-3 0  2413
2 21552  54.4843 223.7240 0069324 322.2940  37.1943  2.00562997130136
GPS BIIA-12 (PRN 25)    
1 21890U 92009A   09100.98907462 -.00000090  00000-0  10000-3 0  2385
2 21890  55.5265  35.4017 0118951 290.0632  68.6578  2.00565315125529
GPS BIIA-14 (PRN 26)    
1 22014U 92039A   09100.61661034 -.00000096  00000-0  10000-3 0   495
2 22014  56.8925 343.9174 0200707  56.6251 305.3237  2.00425318116284
GPS BIIA-15 (PRN 27)    
1 22108U 92058A   09101.15017284 -.00000087  00000-0  10000-3 0   368
2 22108  55.7954  37.4686 0211978 267.0301  90.5250  2.00394522121474
GPS BIIA-21 (PRN 09)    
1 22700U 93042A   09100.71216390 -.00000087  00000-0  10000-3 0  4061
2 22700  55.9076  38.8641 0201138  84.0862 278.1778  2.00567605115624
GPS BIIA-23 (PRN 04)    
1 22877U 93068A   09100.84497842 -.00000014  00000-0  10000-3 0  7110
2 22877  53.9032 221.1467 0085132  26.5309 333.8810  2.00558307113277
GPS BIIA-24 (PRN 06)    
1 23027U 94016A   09100.55221106  .00000037  00000-0  10000-3 0  7314
2 23027  53.4968 158.2245 0060779 278.3362  81.0573  2.00559018110576
GPS BIIA-25 (PRN 03)    
1 23833U 96019A   09101.06788035  .00000034  00000-0  10000-3 0  9162
2 23833  53.0705 154.3545 0115586  50.8593 310.2440  2.00554831 95561
GPS BIIA-26 (PRN 10)    
1 23953U 96041A   09101.49016549 -.00000046  00000-0  10000-3 0  3721
2 23953  54.9505 282.1816 0084997  34.3242 326.1953  2.00575582 93369
GPS BIIA-27 (PRN 30)    
1 24320U 96056A   09100.34434426  .00000013  00000-0  10000-3 0  1100
2 24320  54.5229  98.4140 0109854  80.9417 280.3115  2.00569583 92001
GPS BIIR-02 (PRN 13)    
1 24876U 97035A   09100.43800121 -.00000095  00000-0  10000-3 0  8819
2 24876  57.0146 344.0542 0037247  87.2933 273.1813  2.00557210 85874
GPS BIIA-28 (PRN 08)    
1 25030U 97067A   09101.06816798 -.00000078  00000-0  10000-3 0  7915
2 25030  56.6095  44.2201 0104233 172.5429 187.5932  2.00564706 83780
GPS BIIR-03 (PRN 11)    
1 25933U 99055A   09100.70899455 -.00000009  00000-0  10000-3 0  3524
2 25933  50.9744 208.7674 0091398  39.0259 321.6316  2.00562231 69698
GPS BIIR-04 (PRN 20)    
1 26360U 00025A   09100.81057961 -.00000049  00000-0  10000-3 0  4466
2 26360  54.0127 279.4782 0038198  76.0589 284.3405  2.00566996 65393
GPS BIIR-05 (PRN 28)    
1 26407U 00040A   09100.15211422  .00000023  00000-0  10000-3 0  3938
2 26407  55.3623 102.5541 0150308 244.0501 114.4115  2.00567240 64054
GPS BIIR-06 (PRN 14)    
1 26605U 00071A   09101.24710593 -.00000096  00000-0  10000-3 0  3960
2 26605  56.6453 342.9208 0045582 240.1408 119.4387  2.00573605 61672
GPS BIIR-07 (PRN 18)    
1 26690U 01004A   09101.12129736 -.00000050  00000-0  10000-3 0  2858
2 26690  54.0345 282.5479 0102793 221.7543 137.4334  2.00573139 60088
GPS BIIR-08 (PRN 16)    
1 27663U 03005A   09100.97105171  .00000015  00000-0  10000-3 0  6484
2 27663  55.4673 102.0457 0054527 336.7482  23.0182  2.00549956 45433
GPS BIIR-09 (PRN 21)    
1 27704U 03010A   09100.53415824 -.00000017  00000-0  10000-3 0  5478
2 27704  53.5309 221.9289 0150661 210.4281 148.6707  2.00567915 44216
GPS BIIR-10 (PRN 22)    
1 28129U 03058A   09100.66070443 -.00000052  00000-0  10000-3 0  1666
2 28129  53.9016 282.8966 0050816 254.9085 104.5071  2.00564612 38928
GPS BIIR-11 (PRN 19)    
1 28190U 04009A   09100.61122061  .00000035  00000-0  10000-3 0  1053
2 28190  54.8573 164.9936 0054227 336.5090  23.3215  2.00574259 37097
GPS BIIR-12 (PRN 23)    
1 28361U 04023A   09100.89512107 -.00000097  00000-0  10000-3 0  9296
2 28361  55.6135 341.1203 0058141 167.2351 192.9576  2.00569099 35181
GPS BIIR-13 (PRN 02)    
1 28474U 04045A   09100.39086005 -.00000017  00000-0  10000-3 0  8104
2 28474  53.9510 220.1080 0089852 159.8512 200.4852  2.00567864 32538
GPS BIIRM-1 (PRN 17)    
1 28874U 05038A   09100.24302580  .00000039  00000-0  10000-3 0   660
2 28874  54.9885 161.7876 0044729 207.7250 152.1135  2.00565327 25954
GPS BIIRM-2 (PRN 31)    
1 29486U 06042A   09099.85406479 -.00000086  00000-0  10000-3 0  4377
2 29486  55.7063  40.7298 0074176 292.9557  66.2418  2.00564029 18645
GPS BIIRM-3 (PRN 12)    
1 29601U 06052A   09101.30074751  .00000012  00000-0  10000-3 0  4621
2 29601  55.3807 101.0677 0035038 313.2558  46.4617  2.00561601 17586
GPS BIIRM-4 (PRN 15)    
1 32260U 07047A   09100.60120502 -.00000097  00000-0  00000+0 0  2345
2 32260  54.8160 340.0263 0015449 319.3836  40.5450  2.00572690 10968
GPS BIIRM-5 (PRN 29)    
1 32384U 07062A   09101.42795969  .00000031  00000-0  10000-3 0  2583
2 32384  54.9981 162.2097 0036034 282.5983  77.0826  2.00558811  9704
GPS BIIRM-6 (PRN 07)    
1 32711U 08012A   09100.52040964 -.00000086  00000-0  10000-3 0  1525
2 32711  55.3947  40.8394 0023394 172.4595 187.5555  2.00563615  7899
GPS BIIRM-7 (PRN 01)    
1 34661U 09014A   09101.33553665  .00000010  00000-0  10000-3 0   368
2 34661  55.0319 100.3906 0030556  48.9854 311.2941  2.00552550   422
